#dP2022  7  9  0  0  0.00000000      96 __u+U ITR00 EXT  IAC
## 2217 518400.00000000   900.00000000 59769 0.0000000000000
+  113   C06C07C08C09C10C11C12C13C14C19C20C21C22C23C24C25C26
+        C27C28C29C30C32C33C34C35C36C37C38C39C41C42C43C44C45
+        C46E01E02E03E04E05E07E08E09E10E11E12E13E14E15E18E19
+        E21E24E25E26E27E30E31E33E34E36G01G02G03G04G05G06G07
+        G08G09G10G11G12G13G14G15G16G17G18G19G20G21G22G23G24
+        G25G26G27G28G29G30G31G32J02R01R02R03R04R05R07R08R09
+        R11R12R13R14R15R17R18R19R20R21R24  0  0  0  0  0  0
++        10 10 10  9  9 10  9 10  8  8  6  8  8  9  7  9  9
++         8  6  8  8  8  8  8  9  8  8 10 10  7  8  9  8  8
++         8  8  8  8  7  8  8  8  8  8  7  6  7  7  6  8  8
++         7  7  6  9  7  7  7  8  7  7  8  7  8  7  8  5  7
++         7  8  7  7  7  8  7  8  7  7  7  8  7  6  7  7  6
++         7  7  7  8  8  7  9  7  9 10  9  9  9  8  9  9  9
++         9 11  8  8  8  8  9 10  9  9  8  0  0  0  0  0  0
%c M  cc GPS ccc cccc cccc cccc cccc ccccc ccccc ccccc ccccc
%c cc cc ccc ccc cccc cccc cccc cccc ccccc ccccc ccccc ccccc
%f  0.0000000  0.000000000  0.00000000000  0.000000000000000
%f  0.0000000  0.000000000  0.00000000000  0.000000000000000
%i    0    0    0    0      0      0      0      0         0
%i    0    0    0    0      0      0      0      0         0
/* IAC                                ULTRA-RAPID PREDICTION
/* S/V CLOCKS ARE ALIGNED TO GNSS TIME                      
/* G:C1WC2W R:C1PC2P E:C1XC5X C:C2IC6I J:C1CC2S             
/* PCV:IGS14_2215 OL/AL:FES2004  NONE     YN ORB:CoN CLK:CoN
*  2022 07 09  9  0  0.00000000
PC06 -13829.216746  39683.556898  -4659.981085    356.493125
PC07  -1288.000562  32025.660132 -27277.546713   -405.433420
PC08 -12978.592289  21376.154943  33913.487300    396.961627
PC09 -10299.806135  39400.151928 -11502.168608   -933.512611
PC10   4796.265988  34008.722971 -23848.106086    120.016703
PC11   -653.161738  24978.191738  12446.509249    463.606561
PC12 -12321.219405  24542.867928  -4872.008998   -581.248253
PC13  -7363.455334  23052.716247  34600.476196     18.852527
PC14  10492.805310  23399.482290  10949.463756    533.788270
PC19 -17409.668890 -21747.643090  -1830.777892   -171.650547
PC20  -3656.344204 -21838.891361 -16991.808828   -964.022718
PC21 -13310.058718   8699.677512  22949.133119   -642.647989
PC22 -21681.492235  -9145.125868  15025.016181   -962.856442
PC23  26590.687058   1044.756615  -8389.176705   -942.839137
PC24  -8117.556228  16775.988316 -20765.845047   -968.009689
PC25  14546.168242  11961.394421 -20602.421402   -710.196073
PC26 -23219.224070  12101.444276  -9612.336144    712.093387
PC27  16120.082050 -18864.165309  12733.212816    751.465881
PC28  16636.718016   -440.550878  22398.682662     87.925416
PC29  -7854.341826 -18923.321279 -18958.554295    579.282625
PC30   5832.052518 -27030.972760  -3689.522202    500.890186
PC32  13259.956294  -8777.878748 -22916.493372   -973.144374
PC33  17446.524861  21677.408333   1958.460034   -123.290941
PC34  -5173.825603  27030.343855   4665.941851   -362.829663
PC35 -16421.912240   -316.066327 -22576.982862    357.654992
PC36 -13692.062587 -12576.084907  20841.485443   -973.712429
PC37  24215.630273 -10954.829260   8558.096664   -915.017291
PC38 -20658.434579  22726.121848  28853.391174      8.877510
PC39 -16700.934641  38584.466180   4305.584499     -0.026086
PC41  21769.752941   9516.402943 -14583.045284    -65.979273
PC42   2582.157922  21417.106161  17731.871844   -954.594502
PC43   7379.965949  19575.813360  18463.477241      1.917745
PC44 -15602.468343  19248.794370 -12881.910792    718.310626
PC45 -26668.473037   -794.107398   8157.605933    804.344573
PC46   6386.312891 -16735.050483  21415.784143   -422.283505
PE01  14612.704510 -11521.595351  23024.975156   -511.705566
PE02 -14427.908227  11624.197941 -23078.730004    310.810938
PE03  -8435.273925  22056.612734  17839.277663   -577.151639
PE04  -4833.744945 -29174.024126  -1343.871976  -1067.524219
PE05 -17005.560176   1823.205443  24164.939380   -164.641580
PE07  15551.202103  19150.878780 -16339.842750   -685.876741
PE08   5046.142892  29134.949249   1183.898366   -560.538340
PE09 -15529.010846 -19125.250060  16427.324356   -581.401601
PE10  -6010.795246 -15713.465478 -24370.391432   -525.099933
PE11 -15254.426770  -7537.981754 -24240.305131   3073.212700
PE12   3589.988979 -20995.830736 -20558.037205    -52.749821
PE13  14634.480131   8079.254407  24422.135276    429.722467
PE14 -19248.402874   5562.091565 -23376.196595  -1784.313581
PE15  -3761.181742  21026.361800  20489.985043    734.382691
PE18  11251.253449 -19761.562755  13876.316502  -1235.101944
PE19   9858.337267 -20022.258525 -19435.699533  -5143.986161
PE21  27237.283038   1022.684136  11546.293400   -744.864603
PE24 -24421.782708 -14496.268645   8303.193649   -715.027788
PE25 -27331.749845  -1242.773040 -11285.542258   -580.431396
PE26  24502.482874 -10142.002060  13149.947536  -1356.200663
PE27  25126.033254  13853.458866  -7281.203799   -340.671483
PE30   7154.482074  18439.031002 -22029.988985   -657.807996
PE31  -8235.807797 -18421.838027  21667.816463   -499.616239
PE33  19833.070837 -21503.958605  -4504.898736   -454.869384
PE34 -19695.589577  21588.794634   4665.218332   -526.181280
PE36 -24296.532899   9498.995376 -13997.405527   -399.615222
PG01   8474.042265 -19028.591842 -16575.955253    324.964047
PG02 -21399.902314  15578.777125  -2394.715763   -651.708067
PG03   -841.663152 -16211.385577 -21160.976350   -302.306252
PG04   1859.085070 -26017.389420  -4734.632295   -148.028563
PG05 -14169.024898   9432.091805  20255.359328    -88.482324
PG06 -21584.671618   2771.584559 -15223.117587    377.379198
PG07  -8065.518080 -13414.876760  21854.748478    319.882768
PG08   6091.869425 -22513.189903  12329.920606    -75.459600
PG09  -6722.971338 -25053.332982   5558.490921   -320.828808
PG10  24025.220543  11684.118435    839.258263   -485.313301
PG11 -23487.581217  11890.186512  -3420.534659    -11.186023
PG12  -3398.692470  15213.904209 -21783.896967   -243.635545
PG13 -12885.343591  14673.883055  17762.739102    344.947207
PG14 -23025.056805 -13220.121653   1864.328755   -111.971188
PG15  -3753.952496  23173.745789  11698.088138    -46.861969
PG16  19246.880021  -3142.297286  17963.719729   -514.271526
PG17 -12720.396240 -13835.712912 -18312.401417    634.743260
PG18   7282.294634  13123.217621  21898.942684    118.673161
PG19 -14722.423661  -4491.113020 -21925.519720    181.338500
PG20 -22976.400120   3106.964589  12749.932580    504.701307
PG21  15785.300862 -19482.514698  -6960.129304    161.169642
PG22  14997.472799   1208.851062 -21475.886324    289.309727
PG23  18423.048596  15923.568222  10729.795548    -32.101541
PG24 -10599.755291  20843.914130 -12498.562108    201.533629
PG25  11370.966487  17901.787681 -16441.448102    347.039632
PG26  24776.051117   2165.045304   9667.006416    217.181089
PG27  12801.918812 -11051.529773  20158.603162    220.197262
PG28 -23943.109371  -8670.011763  -6598.758859    332.552839
PG29   4540.334291  25366.541306   6214.418941   -531.871280
PG30 -17137.443644  -5822.528246  19607.627057   -533.566528
PG31  23046.538565  -4308.777502 -13046.062635   -185.039285
PG32  14679.654686  10671.742205 -19307.344386   -171.625353
PJ02 -29435.829384  14625.764849 -21841.908383     -1.483692
PR01  -6199.384150 -21337.619064 -12539.775034     11.188854
PR02 -14976.551490 -19481.850627   6769.550916    523.633669
PR03 -14467.058169  -5631.636730  20267.538807     59.884485
PR04  -5749.559432  10877.446424  22374.749619    149.986492
PR05   5958.774435  21617.924191  12191.740358     95.933876
PR07  14246.383017   5054.147095 -20520.707723     37.583180
PR08   5695.738588 -11048.561107 -22212.674416    -66.121286
PR09  18464.647205   7306.835235 -15941.628505     64.804658
PR11  18580.212904  -7873.022898  15606.166167     33.816146
PR12   -296.502052 -11016.509080  23034.817834     19.215934
PR13 -17384.632807  -7692.287638  17000.517897    -24.432844
PR14 -25512.981109    562.223747   -133.059047     24.945669
PR15 -17984.507196   8021.985155 -16192.621019     94.758791
PR17 -14238.537448   6482.344361 -20132.171674    541.922142
PR18 -14964.065263  19460.358461  -7011.917719    122.991258
PR19  -9170.739963  22156.970285   8678.340621   -195.649285
PR20   4611.444730  11381.054249  22363.707911    -74.245611
PR21  14647.847369  -7957.982010  19311.074305   -315.969551
PR24  -5759.649604 -10875.712133 -22336.922555    102.658001
EOF
